start=new Date('2023-03-09T00:00:00.000Z').valueOf();
sats=[{"COUNTRY_CODE":"US","OBJECT_ID":"2022-177F","MEAN_MOTION":"15.02540656","REF_FRAME":"TEME","EPHEMERIS_TYPE":"0","OBJECT_NAME":"STARLINK-4801","MEAN_MOTION_DOT":"0.00004070","MEAN_ANOMALY":"79.2801","ELEMENT_SET_NO":"999","RCS_SIZE":"LARGE","TIME_SYSTEM":"UTC","ECCENTRICITY":"0.00015200","ARG_OF_PERICENTER":"280.7870","TLE_LINE1":"1 54825U 22177F   23068.00115421  .00004070  00000-0  31613-3 0  9994","INCLINATION":"43.0010","CLASSIFICATION_TYPE":"U","REV_AT_EPOCH":"1100","EPOCH":"2023-03-09T00:01:39.723744","OBJECT_TYPE":"PAYLOAD","MEAN_ELEMENT_THEORY":"SGP4","NORAD_CAT_ID":"54825","SITE":"AFETR","MEAN_MOTION_DDOT":"0.0000000000000","PERIOD":"95.838","DECAY_DATE":null,"FILE":"3855089","LAUNCH_DATE":"2022-12-28","APOAPSIS":"560.122","RA_OF_ASC_NODE":"332.5376","GP_ID":"227726401","BSTAR":"0.00031613000000","PERIAPSIS":"558.013","SEMIMAJOR_AXIS":"6937.202","TLE_LINE2":"2 54825  43.0010 332.5376 0001520 280.7870  79.2801 15.02540656 11006","CENTER_NAME":"EARTH"},{"SITE":"AFETR","FILE":"3855095","LAUNCH_DATE":"2022-12-28","DECAY_DATE":null,"PERIOD":"95.838","MEAN_MOTION_DDOT":"0.0000000000000","BSTAR":"-0.00015057000000","PERIAPSIS":"558.029","SEMIMAJOR_AXIS":"6937.227","APOAPSIS":"560.156","GP_ID":"227726413","RA_OF_ASC_NODE":"333.6064","CENTER_NAME":"EARTH","TLE_LINE2":"2 54826  43.0040 333.6064 0001533 277.1220  82.9448 15.02532441 10975","REF_FRAME":"TEME","EPHEMERIS_TYPE":"0","MEAN_MOTION":"15.02532441","OBJECT_ID":"2022-177G","COUNTRY_CODE":"US","RCS_SIZE":"LARGE","TIME_SYSTEM":"UTC","ELEMENT_SET_NO":"999","MEAN_ANOMALY":"82.9448","MEAN_MOTION_DOT":"-0.00002237","OBJECT_NAME":"STARLINK-5107","REV_AT_EPOCH":"1097","CLASSIFICATION_TYPE":"U","TLE_LINE1":"1 54826U 22177G   23067.79949997 -.00002237  00000-0 -15057-3 0  9992","INCLINATION":"43.0040","ARG_OF_PERICENTER":"277.1220","ECCENTRICITY":"0.00015330","MEAN_ELEMENT_THEORY":"SGP4","NORAD_CAT_ID":"54826","OBJECT_TYPE":"PAYLOAD","EPOCH":"2023-03-08T19:11:16.797408"},{"MEAN_ELEMENT_THEORY":"SGP4","NORAD_CAT_ID":"54827","OBJECT_TYPE":"PAYLOAD","EPOCH":"2023-03-08T19:00:05.460768","REV_AT_EPOCH":"1097","CLASSIFICATION_TYPE":"U","TLE_LINE1":"1 54827U 22177H   23067.79172987  .00028704  00000-0  21297-2 0  9997","INCLINATION":"43.0022","ECCENTRICITY":"0.00016430","ARG_OF_PERICENTER":"258.4044","RCS_SIZE":"LARGE","TIME_SYSTEM":"UTC","ELEMENT_SET_NO":"999","MEAN_ANOMALY":"101.6614","MEAN_MOTION_DOT":"0.00028704","OBJECT_NAME":"STARLINK-5383","REF_FRAME":"TEME","EPHEMERIS_TYPE":"0","MEAN_MOTION":"15.02563416","OBJECT_ID":"2022-177H","COUNTRY_CODE":"US","CENTER_NAME":"EARTH","TLE_LINE2":"2 54827  43.0022 333.5471 0001643 258.4044 101.6614 15.02563416 10975","BSTAR":"0.00212970000000","PERIAPSIS":"557.857","SEMIMAJOR_AXIS":"6937.132","APOAPSIS":"560.137","GP_ID":"227726431","RA_OF_ASC_NODE":"333.5471","FILE":"3855091","LAUNCH_DATE":"2022-12-28","DECAY_DATE":null,"PERIOD":"95.836","MEAN_MOTION_DDOT":"0.0000000000000","SITE":"AFETR"},{"MEAN_MOTION_DDOT":"0.0000000000000","PERIOD":"95.837","DECAY_DATE":null,"LAUNCH_DATE":"2022-12-28","FILE":"3855077","SITE":"AFETR","TLE_LINE2":"2 54828  43.0022 337.1343 0001409 282.8022  77.2663 15.02544174 11851","CENTER_NAME":"EARTH","RA_OF_ASC_NODE":"337.1343","GP_ID":"227725762","APOAPSIS":"560.034","SEMIMAJOR_AXIS":"6937.191","PERIAPSIS":"558.079","BSTAR":"0.00012160000000","OBJECT_NAME":"STARLINK-5381","MEAN_MOTION_DOT":"0.00001440","MEAN_ANOMALY":"77.2663","ELEMENT_SET_NO":"999","TIME_SYSTEM":"UTC","RCS_SIZE":"LARGE","COUNTRY_CODE":"US","OBJECT_ID":"2022-177J","MEAN_MOTION":"15.02544174","EPHEMERIS_TYPE":"0","REF_FRAME":"TEME","EPOCH":"2023-03-08T02:58:00.532992","OBJECT_TYPE":"PAYLOAD","NORAD_CAT_ID":"54828","MEAN_ELEMENT_THEORY":"SGP4","ARG_OF_PERICENTER":"282.8022","ECCENTRICITY":"0.00014090","INCLINATION":"43.0022","TLE_LINE1":"1 54828U 22177J   23067.12361728  .00001440  00000-0  12160-3 0  9996","CLASSIFICATION_TYPE":"U","REV_AT_EPOCH":"1185"},{"MEAN_ANOMALY":"69.6683","OBJECT_NAME":"STARLINK-5380","MEAN_MOTION_DOT":"-0.00000675","RCS_SIZE":"LARGE","TIME_SYSTEM":"UTC","ELEMENT_SET_NO":"999","OBJECT_ID":"2022-177K","COUNTRY_CODE":"US","REF_FRAME":"TEME","EPHEMERIS_TYPE":"0","MEAN_MOTION":"15.02535413","EPOCH":"2023-03-09T00:06:27.674208","MEAN_ELEMENT_THEORY":"SGP4","NORAD_CAT_ID":"54829","OBJECT_TYPE":"PAYLOAD","ARG_OF_PERICENTER":"290.3993","ECCENTRICITY":"0.00015480","REV_AT_EPOCH":"1100","CLASSIFICATION_TYPE":"U","TLE_LINE1":"1 54829U 22177K   23068.00448697 -.00000675  00000-0 -34882-4 0  9993","INCLINATION":"43.0035","PERIOD":"95.838","MEAN_MOTION_DDOT":"0.0000000000000","FILE":"3855096","LAUNCH_DATE":"2022-12-28","DECAY_DATE":null,"SITE":"AFETR","TLE_LINE2":"2 54829  43.0035 332.5621 0001548 290.3993  69.6683 15.02535413 11009","CENTER_NAME":"EARTH","BSTAR":"-0.00003488200000","PERIAPSIS":"558.009","SEMIMAJOR_AXIS":"6937.218","APOAPSIS":"560.157","RA_OF_ASC_NODE":"332.5621","GP_ID":"227726478"},{"SITE":"AFETR","PERIOD":"95.838","MEAN_MOTION_DDOT":"0.0000000000000","LAUNCH_DATE":"2022-12-28","FILE":"3855091","DECAY_DATE":null,"SEMIMAJOR_AXIS":"6937.218","PERIAPSIS":"558.642","BSTAR":"0.00001584000000","RA_OF_ASC_NODE":"333.4792","GP_ID":"227726437","APOAPSIS":"559.524","TLE_LINE2":"2 54830  43.0008 333.4792 0000636 272.5454  87.5315 15.02535451 10979","CENTER_NAME":"EARTH","OBJECT_ID":"2022-177L","COUNTRY_CODE":"US","EPHEMERIS_TYPE":"0","REF_FRAME":"TEME","MEAN_MOTION":"15.02535451","MEAN_ANOMALY":"87.5315","MEAN_MOTION_DOT":"0.00000011","OBJECT_NAME":"STARLINK-5394","TIME_SYSTEM":"UTC","RCS_SIZE":"LARGE","ELEMENT_SET_NO":"999","ARG_OF_PERICENTER":"272.5454","ECCENTRICITY":"0.00006360","REV_AT_EPOCH":"1097","CLASSIFICATION_TYPE":"U","INCLINATION":"43.0008","TLE_LINE1":"1 54830U 22177L   23067.78285203  .00000011  00000-0  15840-4 0  9996","EPOCH":"2023-03-08T18:47:18.415392","NORAD_CAT_ID":"54830","MEAN_ELEMENT_THEORY":"SGP4","OBJECT_TYPE":"PAYLOAD"},{"PERIOD":"95.837","MEAN_MOTION_DDOT":"0.0000000000000","DECAY_DATE":null,"FILE":"3855096","LAUNCH_DATE":"2022-12-28","SITE":"AFETR","TLE_LINE2":"2 54831  42.9982 333.5648 0000536 268.9349  91.1432 15.02550877 10971","CENTER_NAME":"EARTH","APOAPSIS":"559.408","GP_ID":"227726494","RA_OF_ASC_NODE":"333.5648","PERIAPSIS":"558.664","BSTAR":"0.00282880000000","SEMIMAJOR_AXIS":"6937.171","OBJECT_NAME":"STARLINK-5395","MEAN_MOTION_DOT":"0.00038233","MEAN_ANOMALY":"91.1432","ELEMENT_SET_NO":"999","RCS_SIZE":"LARGE","TIME_SYSTEM":"UTC","COUNTRY_CODE":"US","OBJECT_ID":"2022-177M","MEAN_MOTION":"15.02550877","REF_FRAME":"TEME","EPHEMERIS_TYPE":"0","EPOCH":"2023-03-08T19:03:17.342208","OBJECT_TYPE":"PAYLOAD","MEAN_ELEMENT_THEORY":"SGP4","NORAD_CAT_ID":"54831","ECCENTRICITY":"0.00005360","ARG_OF_PERICENTER":"268.9349","TLE_LINE1":"1 54831U 22177M   23067.79395072  .00038233  00000-0  28288-2 0  9999","INCLINATION":"42.9982","CLASSIFICATION_TYPE":"U","REV_AT_EPOCH":"1097"},{"SITE":"AFETR","MEAN_MOTION_DDOT":"0.0000000000000","PERIOD":"95.833","DECAY_DATE":null,"FILE":"3855077","LAUNCH_DATE":"2022-12-28","APOAPSIS":"559.824","RA_OF_ASC_NODE":"320.3106","GP_ID":"227725262","PERIAPSIS":"557.895","BSTAR":"-0.01016600000000","SEMIMAJOR_AXIS":"6936.995","TLE_LINE2":"2 54832  42.9982 320.3106 0001390 279.0763 215.9042 15.02608067  1302","CENTER_NAME":"EARTH","COUNTRY_CODE":"US","OBJECT_ID":"2022-177N","MEAN_MOTION":"15.02608067","REF_FRAME":"TEME","EPHEMERIS_TYPE":"0","OBJECT_NAME":"STARLINK-5393","MEAN_MOTION_DOT":"-0.00135177","MEAN_ANOMALY":"215.9042","ELEMENT_SET_NO":"999","RCS_SIZE":"LARGE","TIME_SYSTEM":"UTC","ECCENTRICITY":"0.00013900","ARG_OF_PERICENTER":"279.0763","TLE_LINE1":"1 54832U 22177N   23067.91667824 -.00135177  00000-0 -10166-1 0  9993","INCLINATION":"42.9982","CLASSIFICATION_TYPE":"U","REV_AT_EPOCH":"130","EPOCH":"2023-03-08T22:00:00.999936","OBJECT_TYPE":"PAYLOAD","MEAN_ELEMENT_THEORY":"SGP4","NORAD_CAT_ID":"54832"},{"SITE":"AFETR","LAUNCH_DATE":"2022-12-28","FILE":"3855091","DECAY_DATE":null,"MEAN_MOTION_DDOT":"0.0000000000000","PERIOD":"95.839","SEMIMAJOR_AXIS":"6937.245","PERIAPSIS":"558.531","BSTAR":"0.00003554400000","GP_ID":"227726433","RA_OF_ASC_NODE":"333.4896","APOAPSIS":"559.688","CENTER_NAME":"EARTH","TLE_LINE2":"2 54833  42.9984 333.4896 0000834 272.1224  87.9522 15.02526868 10975","EPHEMERIS_TYPE":"0","REF_FRAME":"TEME","MEAN_MOTION":"15.02526868","OBJECT_ID":"2022-177P","COUNTRY_CODE":"US","TIME_SYSTEM":"UTC","RCS_SIZE":"LARGE","ELEMENT_SET_NO":"999","MEAN_ANOMALY":"87.9522","MEAN_MOTION_DOT":"0.00000277","OBJECT_NAME":"STARLINK-5391","CLASSIFICATION_TYPE":"U","REV_AT_EPOCH":"1097","INCLINATION":"42.9984","TLE_LINE1":"1 54833U 22177P   23067.78396763  .00000277  00000-0  35544-4 0  9990","ARG_OF_PERICENTER":"272.1224","ECCENTRICITY":"0.00008340","NORAD_CAT_ID":"54833","MEAN_ELEMENT_THEORY":"SGP4","OBJECT_TYPE":"PAYLOAD","EPOCH":"2023-03-08T18:48:54.803232"},{"PERIOD":"95.836","MEAN_MOTION_DDOT":"0.0000000000000","DECAY_DATE":null,"LAUNCH_DATE":"2022-12-28","FILE":"3855092","SITE":"AFETR","TLE_LINE2":"2 54834  43.0021 333.4613 0001128 288.5470  71.5250 15.02559182 10970","CENTER_NAME":"EARTH","GP_ID":"227726229","RA_OF_ASC_NODE":"333.4613","APOAPSIS":"559.793","SEMIMAJOR_AXIS":"6937.145","PERIAPSIS":"558.228","BSTAR":"0.00237760000000","OBJECT_NAME":"STARLINK-5386","MEAN_MOTION_DOT":"0.00032081","MEAN_ANOMALY":"71.5250","ELEMENT_SET_NO":"999","TIME_SYSTEM":"UTC","RCS_SIZE":"LARGE","COUNTRY_CODE":"US","OBJECT_ID":"2022-177Q","MEAN_MOTION":"15.02559182","EPHEMERIS_TYPE":"0","REF_FRAME":"TEME","EPOCH":"2023-03-08T18:44:06.464832","OBJECT_TYPE":"PAYLOAD","NORAD_CAT_ID":"54834","MEAN_ELEMENT_THEORY":"SGP4","ECCENTRICITY":"0.00011280","ARG_OF_PERICENTER":"288.5470","INCLINATION":"43.0021","TLE_LINE1":"1 54834U 22177Q   23067.78063038  .00032081  00000-0  23776-2 0  9997","REV_AT_EPOCH":"1097","CLASSIFICATION_TYPE":"U"}];
